     3.04           N: GNSS NAV DATA    S: SBAS             RINEX VERSION / TYPE
sbf2rin-13.8.0                          20240419 122302 UTC PGM / RUN BY / DATE 
                                                            END OF HEADER       
